COSMOS 2361 [-]         
1 25590U 98076A   22225.11915457  .00000048  00000+0  35572-4 0  9994
2 25590  82.9367 164.2791 0032789  52.4401 318.8636 13.73025098184313
COSMOS 2378 [-]         
1 26818U 01023A   22225.12820735  .00000057  00000+0  44923-4 0  9999
2 26818  82.9294 182.2028 0033236 359.7000   0.4111 13.73973205 62099
COSMOS 2389 [-]         
1 27436U 02026A   22224.83066674  .00000057  00000+0  43221-4 0  9991
2 27436  82.9518 128.2920 0045422 217.1939 209.0528 13.74979753 14118
COSMOS 2398 [-]         
1 27818U 03023A   22225.14351811  .00000014  00000+0 -35215-6 0  9998
2 27818  82.9475  89.8375 0030020 254.3307 105.4539 13.72214576961160
COSMOS 2407 [+]         
1 28380U 04028A   22225.14795460  .00000049  00000+0  35135-4 0  9997
2 28380  82.9595  34.4465 0038299 217.5962 142.2521 13.76117864906950
COSMOS 2414 [+]         
1 28521U 05002A   22225.14043668  .00000064  00000+0  40442-4 0  9997
2 28521  82.9489  25.3707 0040827  14.2271 346.0032 13.87662169889419
COSMOS 2429 [-]         
1 32052U 07038A   22224.91580206  .00000039  00000+0  24400-4 0  9998
2 32052  82.9831 160.7184 0037913 194.5543 165.4525 13.74966063748750
COSMOS 2454 [-]         
1 35635U 09039A   22225.17761681  .00000054  00000+0  31359-4 0  9996
2 35635  82.9570  11.5844 0018565 319.8717  40.1076 13.89691866662570
COSMOS 2463 [+]         
1 36519U 10017A   22224.48117962  .00000022  00000+0  71147-5 0  9991
2 36519  82.9606 201.6489 0037630  68.3417  78.8125 13.71477650615379
